COSMOS 1953             
1 19210U 88050A   26064.82858363  .00010622  00000+0  38165-3 0  9991
2 19210  82.5106 162.1287 0012341 134.8339 225.3906 15.28442834 37194
SL-8 R/B                
1 19257U 88053B   26064.63418509  .00000370  00000+0  12839-3 0  9997
2 19257  74.0466 119.9422 0021348 299.8199 173.7495 14.38913126976013
COSMOS 1975             
1 19573U 88093A   26064.59921800  .00008983  00000+0  32709-3 0  9996
2 19573  82.5192 121.7917 0011841 177.2898 182.8407 15.27998410 18789
SL-14 R/B               
1 19574U 88093B   26064.95644108  .00000720  00000+0  79948-4 0  9998
2 19574  82.5298  45.5484 0021992  53.2053   0.1988 14.85650663   463
SL-16 R/B               
1 19650U 88102B   26064.66683025  .00000142  00000+0  96025-4 0  9996
2 19650  71.0000 159.9612 0013696   7.8268 352.3066 14.16149885926324
INTERCOSMOS 24          
1 20261U 89080A   26064.59280706  .00000961  00000+0  28585-3 0  9997
2 20261  82.6031 107.0723 1186770 302.3389  46.8135 12.59550817666289
SL-14 R/B               
1 20262U 89080C   26064.71486794  .00000909  00000+0  27084-3 0  9992
2 20262  82.5972 175.7370 1230418 193.8321 162.6001 12.50488178659654
DELTA 1 R/B             
1 20323U 89089B   26064.55124094  .00000496  00000+0  13091-3 0  9997
2 20323  97.0708 272.6481 0070210 134.8691 225.8238 14.50659365895135
ARIANE 40 R/B           
1 20443U 90005H   26064.78304280  .00000380  00000+0  13441-3 0  9993
2 20443  98.3092 125.5608 0009605 210.5753 149.4877 14.39867547892245
DELTA 2 R/B(1)          
1 20453U 90008B   26064.71669425  .00080331  00000+0  95688-3 0  9992
2 20453  35.6041 200.9171 0086306 222.0016 137.4078 15.55380339925515
COSMOS 2058             
1 20465U 90010A   26064.94038745  .00004756  00000+0  28071-3 0  9997
2 20465  82.4670  51.1216 0009682 356.0267   4.0884 15.11279556941679
SL-14 R/B               
1 20466U 90010B   26064.97733263  .00000487  00000+0  56099-4 0  9997
2 20466  82.4991 270.8769 0018768 315.3173  44.6529 14.83564862927932
SL-14 R/B               
1 20511U 90018B   26064.92409445  .00000633  00000+0  76437-4 0  9994
2 20511  82.5195 226.6094 0017639 103.4699 256.8482 14.82139560922027
HST                     
1 20580U 90037B   26064.11414895  .00009931  00000+0  33044-3 0  9993
2 20580  28.4704  71.2101 0001765  80.6022 279.4773 15.29398003772613
SL-16 R/B               
1 20625U 90046B   26064.95052528 -.00000229  00000+0 -93291-4 0  9990
2 20625  70.9995 305.7678 0016195 304.5886  55.3708 14.15013791847861
COSMOS 2084             
1 20663U 90055A   26064.93630597  .00003163  00000+0  23137-3 0  9997
2 20663  62.7925 348.3787 0017703 189.0297 171.0488 15.05623123935750
SL-6 R/B(2)             
1 20666U 90055D   26064.91381671  .00002283  00000+0  17992-3 0  9998
2 20666  62.7820 266.6918 0024177 346.0712  13.9718 15.03571825937622
